ONEWEB-0536             
1 54148U 22138AM  22323.58334491  .00038369  00000+0  38107-2 0  9996
2 54148  87.1367 207.6416 0010032 184.9630 113.9590 14.91514784  1305
GSLV R/B                
1 54149U 22138AN  22323.40403170  .00001191  00000+0  12838-3 0  9996
2 54149  87.3897 207.8890 0025221 177.8244 182.3096 14.87305259  4115
GONETS-M 23             
1 54150U 22139A   22323.50654178  .00000010  00000+0  00000+0 0  9999
2 54150  82.5068  79.6273 0017117 184.7575 175.3354 12.41994992  3443
GONETS-M 24             
1 54151U 22139B   22323.48686884  .00000010  00000+0  00000+0 0  9996
2 54151  82.4983  79.5927 0012816 205.0610 154.9857 12.43606453  3447
GONETS-M 25             
1 54152U 22139C   22323.47883960  .00000010  00000+0  00000+0 0  9990
2 54152  82.5020  79.5968 0014227 198.9752 161.0807 12.43968932  3448
PROGRESS-MS 21          
1 54155U 22140A   22323.39754076  .00010466  00000+0  19050-3 0  9996
2 54155  51.6434 287.7009 0006931  90.4715  45.4285 15.50079577  3796
STARLINK-5290           
1 54157U 22141A   22323.58334491 -.01192361  00000+0 -14806-1 0  9995
2 54157  53.2177  32.5451 0001661  42.8308 159.8080 15.62159156  1304
STARLINK-5297           
1 54158U 22141B   22323.58334491 -.01212323  00000+0 -15138-1 0  9996
2 54158  53.2177  32.5521 0001490  47.7828 151.3747 15.62065629  1302
STARLINK-5294           
1 54159U 22141C   22323.58334491 -.01173541  00000+0 -14598-1 0  9994
2 54159  53.2179  32.5499 0001462  56.1305 144.1748 15.62071939  1304
STARLINK-5233           
1 54160U 22141D   22323.58334491  .00059902  00000+0  42825-3 0  9993
2 54160  53.2194  32.3198 0003066  18.7152 298.3555 15.73192828  1304
STARLINK-5269           
1 54161U 22141E   22323.58334491 -.01212486  00000+0 -15100-1 0  9999
2 54161  53.2177  32.5476 0001340  64.9309 136.4929 15.62134877  1302
STARLINK-5273           
1 54162U 22141F   22323.58334491 -.01201817  00000+0 -14911-1 0  9995
2 54162  53.2177  32.5427 0001593  45.8020 158.0009 15.62203186  1306
STARLINK-5161           
1 54163U 22141G   22323.58334491  .00025200  00000+0  18323-3 0  9996
2 54163  53.2187  32.3693 0003414  10.4982 282.0995 15.73221629  1306
STARLINK-5278           
1 54164U 22141H   22323.58334491 -.00009959  00000+0 -66494-4 0  9995
2 54164  53.2192  32.3720 0003249  19.0530 273.0171 15.73228707  1304
STARLINK-5279           
1 54165U 22141J   22323.58334491 -.01207055  00000+0 -14962-1 0  9994
2 54165  53.2178  32.5403 0001373  60.2425 144.6855 15.62241327  1309
STARLINK-5280           
1 54166U 22141K   22323.58334491  .00014641  00000+0  10847-3 0  9999
2 54166  53.2187  32.3675 0002960  20.1490 273.0738 15.73216822  1300
STARLINK-5243           
1 54167U 22141L   22323.58334491 -.01215146  00000+0 -15050-1 0  9995
2 54167  53.2179  32.5381 0001371  67.9404 138.0943 15.62281149  1307
STARLINK-5245           
1 54168U 22141M   22323.58334491  .00081388  00000+0  57804-3 0  9997
2 54168  53.2189  32.3665 0003133  16.3485 277.9988 15.73223195  1308
STARLINK-5282           
1 54169U 22141N   22323.58334491  .00020045  00000+0  14662-3 0  9996
2 54169  53.2188  32.3722 0003214  16.9403 274.4287 15.73242658  1307
STARLINK-5155           
1 54170U 22141P   22323.58334491  .00075538  00000+0  53794-3 0  9994
2 54170  53.2201  32.3668 0003199   9.3714 285.6881 15.73189778  1304
STARLINK-5229           
1 54171U 22141Q   22323.58334491  .00056728  00000+0  40577-3 0  9990
2 54171  53.2194  32.3738 0003130  20.3399 270.5039 15.73202482  1307
STARLINK-5117           
1 54172U 22141R   22323.58334491  .00012069  00000+0  90180-4 0  9997
2 54172  53.2184  32.3606 0003405  12.4731 283.7438 15.73228092  1302
STARLINK-5242           
1 54173U 22141S   22323.58334491  .00059335  00000+0  42464-3 0  9996
2 54173  53.2186  32.3667 0003112  16.1583 277.6960 15.73172103  1306
STARLINK-5248           
1 54174U 22141T   22323.58334491  .00080073  00000+0  57043-3 0  9999
2 54174  53.2170  31.5705 0002234  26.6276 293.9353 15.73161288  1302
STARLINK-5256           
1 54175U 22141U   22323.58334491  .00074801  00000+0  53287-3 0  9998
2 54175  53.2190  32.3634 0003414  16.4607 279.1321 15.73185221  1305
STARLINK-5154           
1 54176U 22141V   22323.58334491  .00056532  00000+0  40481-3 0  9992
2 54176  53.2182  32.3552 0003402  12.6759 285.9453 15.73177567  1304
STARLINK-5186           
1 54177U 22141W   22323.58334491  .00072375  00000+0  51594-3 0  9993
2 54177  53.2196  32.3622 0003135  12.4866 284.3318 15.73183355  1303
STARLINK-5164           
1 54178U 22141X   22323.58334491  .00061320  00000+0  43840-3 0  9997
2 54178  53.2182  32.3538 0003292  12.7494 286.4749 15.73181919  1304
STARLINK-5122           
1 54179U 22141Y   22323.58334491  .00083472  00000+0  59408-3 0  9997
2 54179  53.2184  32.3580 0002985  18.6853 278.7329 15.73164535  1309
STARLINK-5228           
1 54180U 22141Z   22323.58334491 -.00088177  00000+0 -62878-3 0  9993
2 54180  53.2182  32.3475 0003005  14.1919 288.0325 15.73254248  1301
STARLINK-5227           
1 54181U 22141AA  22323.58334491  .00070050  00000+0  49966-3 0  9996
2 54181  53.2185  32.3535 0003297   5.9048 293.9333 15.73182070  1303
STARLINK-5231           
1 54182U 22141AB  22323.58334491  .00014240  00000+0  10561-3 0  9995
2 54182  53.2172  32.3413 0003150   9.4802 295.1141 15.73219921  1307
STARLINK-5239           
1 54183U 22141AC  22323.58334491  .00018888  00000+0  13865-3 0  9998
2 54183  53.2192  32.3515 0003304  21.4570 280.1715 15.73204886  1305
STARLINK-5162           
1 54184U 22141AD  22323.58334491  .00086400  00000+0  61453-3 0  9990
2 54184  53.2171  32.3435 0003193  16.3468 286.4630 15.73164736  1303
STARLINK-5235           
1 54185U 22141AE  22323.58334491  .00014389  00000+0  10669-3 0  9991
2 54185  53.2187  32.3548 0003278  12.0661 288.9512 15.73215469  1304
STARLINK-5194           
1 54186U 22141AF  22323.58334491  .00051561  00000+0  36957-3 0  9993
2 54186  53.2175  32.3389 0003143  14.8572 290.8742 15.73194448  1307
STARLINK-5240           
1 54187U 22141AG  22323.58334491  .00017163  00000+0  12646-3 0  9993
2 54187  53.2190  32.3530 0002874  11.0207 289.3951 15.73198172  1300
STARLINK-5238           
1 54188U 22141AH  22323.58334491  .00067491  00000+0  48166-3 0  9999
2 54188  53.2160  32.3367 0003150  10.9935 294.1698 15.73185129  1300
STARLINK-5182           
1 54189U 22141AJ  22323.58334491  .00005172  00000+0  41163-4 0  9999
2 54189  53.2186  32.3466 0003452  12.9034 290.3651 15.73255882  1307
STARLINK-5281           
1 54190U 22141AK  22323.58334491  .00078387  00000+0  55852-3 0  9998
2 54190  53.2177  32.3384 0002971  16.5589 289.8476 15.73163493  1302
STARLINK-4619           
1 54191U 22141AL  22323.58334491  .00018829  00000+0  13830-3 0  9994
2 54191  53.2179  32.3432 0003249   7.6853 296.3277 15.73193053  1300
STARLINK-5268           
1 54192U 22141AM  22323.58334491 -.00037612  00000+0 -26440-3 0  9999
2 54192  53.2185  32.3288 0003297  13.2664 298.4718 15.73222610  1308
STARLINK-5263           
1 54193U 22141AN  22323.58334491  .00006087  00000+0  47687-4 0  9997
2 54193  53.2179  32.3366 0003160  10.4022 297.0875 15.73239802  1305
STARLINK-5271           
1 54194U 22141AP  22323.58334491  .00006555  00000+0  51072-4 0  9991
2 54194  53.2185  32.3346 0003182  13.9323 294.7703 15.73211566  1308
STARLINK-5258           
1 54195U 22141AQ  22323.58334491  .00083828  00000+0  59574-3 0  9994
2 54195  53.2186  32.3391 0003076  15.9565 290.9170 15.73196931  1306
STARLINK-5237           
1 54196U 22141AR  22323.58334491  .00007686  00000+0  59062-4 0  9996
2 54196  53.2183  32.3319 0002902  15.6573 294.2381 15.73229490  1305
STARLINK-5234           
1 54197U 22141AS  22323.58334491  .00071830  00000+0  51191-3 0  9993
2 54197  53.2191  32.3371 0003072  20.9802 287.1464 15.73193291  1308
STARLINK-5246           
1 54198U 22141AT  22323.58334491 -.00015071  00000+0 -10304-3 0  9992
2 54198  53.2183  32.3302 0002919  20.4193 290.1294 15.73216158  1304
STARLINK-5244           
1 54199U 22141AU  22323.58334491  .00076263  00000+0  54381-3 0  9994
2 54199  53.2187  32.3337 0003316  15.8468 293.5141 15.73155064  1308
STARLINK-5250           
1 54200U 22141AV  22323.58334491  .00084475  00000+0  60078-3 0  9991
2 54200  53.2156  32.3210 0003022  17.7378 294.6166 15.73176754  1300
STARLINK-5199           
1 54201U 22141AW  22323.58334491 -.00030599  00000+0 -21401-3 0  9999
2 54201  53.2179  32.3243 0003159  14.7592 298.1241 15.73232685  1307
STARLINK-5205           
1 54202U 22141AX  22323.58334491  .00071009  00000+0  50637-3 0  9992
2 54202  53.2172  32.3222 0002931  21.1460 292.3944 15.73183825  1308
STARLINK-5247           
1 54203U 22141AY  22323.58334491  .00060372  00000+0  43172-3 0  9990
2 54203  53.2174  32.3273 0002857  12.0483 299.1118 15.73184072  1301
STARLINK-5241           
1 54204U 22141AZ  22323.58334491 -.00025855  00000+0 -18016-3 0  9999
2 54204  53.2177  32.3191 0002914  13.5153 301.7734 15.73218045  1300
STARLINK-5249           
1 54205U 22141BA  22323.58334491  .00005177  00000+0  41385-4 0  9999
2 54205  53.2175  32.3194 0002740  21.2949 292.8207 15.73145334  1303
STARLINK-5264           
1 54206U 22141BB  22323.58334491  .00003487  00000+0  29236-4 0  9993
2 54206  53.2158  31.8895 0002272  21.3378 142.4745 15.73219364  1306
STARLINK-5262           
1 54207U 22141BC  22323.58334491 -.00018194  00000+0 -12535-3 0  9990
2 54207  53.2178  32.3213 0002927  12.6897 302.0406 15.73217921  1300
STARLINK-5255           
1 54208U 22141BD  22323.58334491  .00050922  00000+0  36536-3 0  9991
2 54208  53.2173  32.3173 0003036  10.9294 304.9781 15.73176157  1307
STARLINK-5259           
1 54209U 22141BE  22323.58334491  .00053034  00000+0  37973-3 0  9995
2 54209  53.2170  32.3158 0003434  16.5751 299.9086 15.73205989  1307
